2022-057AM              
1 52767U 22057AM  22161.55357259  .00006580  00000+0  37236-3 0  9998
2 52767  97.5135 276.3623 0013708 168.4951 191.6596 15.13307392  2396
2022-057AN              
1 52768U 22057AN  22161.55332724  .00004725  00000+0  26835-3 0  9991
2 52768  97.5138 276.3627 0013816 168.2657 191.8898 15.13324618  2392
LEMUR-2-MIMI1307        
1 52769U 22057AP  22161.55283452  .00003633  00000+0  20682-3 0  9996
2 52769  97.5256 276.3902 0014845 173.4984 186.6442 15.13380706  2391
2022-057AQ              
1 52770U 22057AQ  22161.55279799  .00002509  00000+0  14423-3 0  9994
2 52770  97.5144 276.3648 0013654 162.8630 197.3065 15.13326341  2398
OMNI-L2                 
1 52771U 22057AR  22161.55137177  .00003927  00000+0  22261-3 0  9992
2 52771  97.5181 276.3750 0014591 165.2325 194.9336 15.13487557  2394
2022-057AS              
1 52772U 22057AS  22161.55046027  .00003233  00000+0  18353-3 0  9993
2 52772  97.5160 276.3712 0014980 163.8631 196.3080 15.13559835  2397
2022-057AT              
1 52773U 22057AT  22161.55670922  .00007109  00000+0  40480-3 0  9993
2 52773  97.5209 276.3810 0012797 179.2662 180.8590 15.13065922  2393
2022-058A               
1 52785U 22058A   22161.54690533  .00000992  00000+0  13747-3 0  9995
2 52785  49.9980 221.7286 0012079 316.0018  43.9957 14.86370960  1253
2022-058B               
1 52786U 22058B   22161.47901924  .00000986  00000+0  13635-3 0  9996
2 52786  50.0030 222.0410 0012036 319.4124  40.5914 14.86489155  1224
2022-058C               
1 52787U 22058C   22161.47859239  .00001068  00000+0  14527-3 0  9991
2 52787  49.9929 222.0321 0012662 319.1395  40.8593 14.86564759  1222
2022-058D               
1 52788U 22058D   22161.47776829  .00000987  00000+0  13585-3 0  9997
2 52788  50.0079 222.0362 0012928 321.8451  38.1565 14.86712958  1220
2022-058E               
1 52789U 22058E   22161.47703215  .00001032  00000+0  14039-3 0  9994
2 52789  49.9908 222.0207 0013887 322.5002  37.4960 14.86843168  1221
2022-058F               
1 52790U 22058F   22161.47556637  .00000942  00000+0  12961-3 0  9991
2 52790  50.0088 222.0221 0014077 327.5797  32.4281 14.87106635  1222
2022-058G               
1 52791U 22058G   22161.47477447  .00001004  00000+0  13605-3 0  9999
2 52791  49.9928 222.0066 0015126 327.8721  32.1303 14.87247218  1221
2022-058H               
1 52792U 22058H   22161.47360211  .00001026  00000+0  13780-3 0  9998
2 52792  49.9971 222.0026 0016031 329.7454  30.2558 14.87457299  1229
2022-058J               
1 52793U 22058J   22161.47289991  .00001063  00000+0  14133-3 0  9998
2 52793  50.0023 222.0012 0016235 332.2651  27.7424 14.87584320  1252
CZ-2C R/B               
1 52794U 22058K   22161.54447114  .00001283  00000+0  85353-4 0  9997
2 52794  50.1752 220.6791 0103899  73.1034 288.1269 15.10754864  1248
PROGRESS-MS 20          
1 52795U 22059A   22161.49189882  .00006545  00000+0  12279-3 0  9990
2 52795  51.6453   9.7501 0004412 216.6184 221.7707 15.49943964344141
SHENZHOU 14             
1 52797U 22060A   22161.56003236  .00009293  00000+0  11556-3 0  9990
2 52797  41.4716 259.2236 0004639 252.3743 230.1537 15.60013446 63732
CZ-2F R/B               
1 52798U 22060B   22161.32792989  .00678574  75964-5  42020-3 0  9996
2 52798  41.4733 258.5209 0090274 163.5483 196.6973 16.08057218   849
2022-060C               
1 52799U 22060C   22158.63088778  .13393469  67337-5  55675-2 0  9996
2 52799  41.3128 276.8905 0142897 134.7881 263.1502 16.02431565   409
2022-060D               
1 52800U 22060D   22159.64835821  .08579681  72702-5  28536-2 0  9994
2 52800  41.3762 270.3417 0116427 139.3137 314.9335 16.09928926   563
2022-060E               
1 52801U 22060E   22157.36932009 -.00002194  69449-5  00000+0 0  9998
2 52801  41.0685 284.5238 0123495 165.3532 231.9799 15.84772631   197
2022-060F               
1 52802U 22060F   22157.67621979 -.00002353  74520-5  00000+0 0  9997
2 52802  41.6324 282.1422 0195064 154.0855 207.6986 15.86012985   297
NILESAT 301             
1 52817U 22061A   22161.41666670 -.00000129  00000+0  00000+0 0  9993
2 52817   7.2760  46.3650 5246488 178.5350 228.1960  1.40514989    39
FALCON 9 R/B            
1 52818U 22061B   22161.46836179  .00022670  00000+0  23840-1 0  9995
2 52818  18.6245  44.8706 7696853 179.6917 275.1586  1.75892079    29
NOAA 1 [-]              
1 04793U 70106A   22161.45099229 -.00000040  00000+0  23129-4 0  9994
2 04793 101.5564 225.4352 0031223 336.7415  34.3025 12.54005371356717
NOAA 2 (ITOS-D) [-]     
1 06235U 72082A   22161.37991351 -.00000020  00000+0  16268-3 0  9993
2 06235 101.9520 143.5693 0004537  87.5235  75.2473 12.53147653271089
NOAA 3 [-]              
1 06920U 73086A   22161.39069147 -.00000048  00000+0 -18611-4 0  9996
2 06920 102.2070 142.9028 0006199 307.3686 212.5856 12.40347974199914
NOAA 4 [-]              
1 07529U 74089A   22161.36034381 -.00000024  00000+0  13580-3 0  9997
2 07529 101.9121 140.9762 0009374 115.6701  51.7417 12.53157790175652
NOAA 5 [-]              
1 09057U 76077A   22161.38611611 -.00000016  00000+0  22299-3 0  9991
2 09057 102.0973 129.4498 0009938 149.1872   5.0737 12.37770987 72869
TIROS N [-]             
1 11060U 78096A   22161.43383357  .00000058  00000+0  48781-4 0  9990
2 11060  98.6356 215.3636 0011110 158.1234 202.0418 14.18388854470616
NOAA 6 [-]              
1 11416U 79057A   22161.28449136  .00000125  00000+0  61113-4 0  9993
2 11416  98.6637 172.1288 0009074 281.6826  78.3340 14.33758718240497
NOAA 7 [-]              
1 12553U 81059A   22161.38295876  .00000020  00000+0  32502-4 0  9996
2 12553  98.9993 205.7118 0012318 132.6874 227.5340 14.17332129116795
NOAA 8 [-]              
1 13923U 83022A   22161.42368166  .00000055  00000+0  39351-4 0  9995
2 13923  98.6861 151.9951 0014172 227.2232 132.7758 14.28808523 41407
NOAA 9 [-]              
1 15427U 84123A   22161.33042203  .00000054  00000+0  50614-4 0  9994
2 15427  99.0446 133.6032 0014710 181.5296 315.1417 14.16201744935601
NOAA 10 [-]             
1 16969U 86073A   22161.39560344  .00000055  00000+0  39514-4 0  9996
2 16969  98.5671 147.6805 0011768 339.1231 181.6963 14.28200540859827
NOAA 11 [-]             
1 19531U 88089A   22161.48501468  .00000016  00000+0  28959-4 0  9993
2 19531  98.4233 150.9504 0010803 192.7288 167.3615 14.15310330739833
NOAA 12 [-]             
1 21263U 91032A   22161.54584771  .00000045  00000+0  36646-4 0  9999
2 21263  98.5133 161.5625 0013724   4.9974 355.1341 14.25993900615748
NOAA 13 [-]             
1 22739U 93050A   22161.36454923  .00000048  00000+0  47896-4 0  9997
2 22739  98.5038 141.5188 0009757  11.3678 348.7714 14.12842758486059
NOAA 14 [-]             
1 23455U 94089A   22161.55045002  .00000027  00000+0  35510-4 0  9998
2 23455  98.4478 188.6255 0009195 351.8832   8.2192 14.14197527415733
NOAA 15 [B]             
1 25338U 98030A   22161.54426425  .00000139  00000+0  76397-4 0  9993
2 25338  98.6440 191.1701 0009526 323.2547  36.7979 14.26136049252031
NOAA 16 [-]             
1 26536U 00055A   22161.53016191  .00000031  00000+0  39258-4 0  9994
2 26536  98.6366 220.6704 0010561 179.2105 180.9086 14.13328850416379
NOAA 17 [-]             
1 27453U 02032A   22161.55219854  .00000043  00000+0  36950-4 0  9992
2 27453  98.6716 106.8926 0010778 294.9672  65.0387 14.25121897 37878
NOAA 18 [B]             
1 28654U 05018A   22161.54878606  .00000137  00000+0  97697-4 0  9997
2 28654  98.9491 231.9901 0013961 355.7589   4.3462 14.12739635879008
NOAA 19 [+]             
1 33591U 09005A   22161.54925297  .00000128  00000+0  94329-4 0  9991
2 33591  99.1479 195.5410 0013538 203.4258 156.6298 14.12574526687219
SUOMI NPP [+]           
1 37849U 11061A   22161.59598132  .00000033  00000+0  36659-4 0  9992
2 37849  98.7327 100.2430 0001098  81.8101  90.9366 14.19527533550223
NOAA 20 [+]             
1 43013U 17073A   22161.52750973  .00000011  00000+0  26075-4 0  9994
2 43013  98.7166 100.1897 0001614  85.8641 274.2720 14.19556302236247
CELESTIS-02             
1 25160U 98007D   22161.49365698 -.00000037  00000+0  41049-4 0  9992
2 25160 107.9806 252.7386 0061262 123.0738 248.2372 14.21626503261873
CELESTIS-03             
1 26034U 99070C   22161.52375325  .00011212  00000+0  54411-3 0  9998
2 26034  98.3115 166.7978 0011857 143.4343 216.7700 15.18623954220025
O3B FM5                 
1 39188U 13031A   22161.27158282 -.00000010  00000+0  00000+0 0  9994
2 39188   0.0451  28.1537 0002185  83.2053 248.6667  4.99968252163603
O3B FM4                 
1 39189U 13031B   22160.32287892 -.00000010  00000+0  00000+0 0  9990
2 39189   0.0597   1.7268 0001903  75.9612 282.3355  5.00022765163667
O3B FM2                 
1 39190U 13031C   22161.37457137 -.00000010  00000+0  00000+0 0  9999
2 39190   0.0638 359.0193 0003011 309.7748  51.1814  5.00116057163683
O3B PFM                 
1 39191U 13031D   22161.25501830 -.00000010  00000+0  00000+0 0  9997
2 39191   0.0471  17.2728 0002660  63.1862 279.5734  5.00115654163233
O3B FM3                 
1 40079U 14038A   22161.10984184 -.00000010  00000+0  00000+0 0  9993
2 40079   0.0549   7.9279 0005039  78.4349 273.6972  5.00115346139606
O3B FM7                 
1 40080U 14038B   22161.45569696 -.00000010  00000+0  00000+0 0  9990
2 40080   0.0594   7.6175 0000761  67.5920 284.8013  5.00115349144453
O3B FM6                 
1 40081U 14038C   22161.48207135 -.00000010  00000+0  00000+0 0  9991
2 40081   0.0548   6.7398 0002683  74.1602 279.1327  5.00115385144406
O3B FM8                 
1 40082U 14038D   22161.33615337 -.00000010  00000+0  00000+0 0  9993
2 40082   0.0560   3.7714 0002746  74.0094 282.2523  5.00115573144518
O3B FM10                
1 40348U 14083A   22159.56309227 -.00000011  00000+0  00000+0 0  9999
2 40348   0.0466  10.9949 0002642  66.7385 282.2981  5.00115143136370
